{
    "links": {
        "self": "http://www.neowsapp.com/rest/v1/neo/3841627?api_key=iIulBulltgU6a56xZRHN4H3l9WmuAYTsLGpBGhQ2"
    },
    "id": "3841627",
    "neo_reference_id": "3841627",
    "name": "(2019 HS3)",
    "designation": "2019 HS3",
    "nasa_jpl_url": "http://ssd.jpl.nasa.gov/sbdb.cgi?sstr=3841627",
    "absolute_magnitude_h": 27.0,
    "estimated_diameter": {
        "kilometers": {
            "estimated_diameter_min": 0.0105816886,
            "estimated_diameter_max": 0.023661375
        },
        "meters": {
            "estimated_diameter_min": 10.5816885933,
            "estimated_diameter_max": 23.6613750114
        },
        "miles": {
            "estimated_diameter_min": 0.0065751544,
            "estimated_diameter_max": 0.0147024923
        },
        "feet": {
            "estimated_diameter_min": 34.7168272045,
            "estimated_diameter_max": 77.6291855923
        }
    },
    "is_potentially_hazardous_asteroid": false,
    "close_approach_data": [
        {
            "close_approach_date": "2019-04-24",
            "close_approach_date_full": "2019-Apr-24 23:49",
            "epoch_date_close_approach": 1556149740000,
            "relative_velocity": {
                "kilometers_per_second": "26.8771070722",
                "kilometers_per_hour": "96757.585460015",
                "miles_per_hour": "60121.4008098632"
            },
            "miss_distance": {
                "astronomical": "0.0076475881",
                "lunar": "2.9749117709",
                "kilometers": "1144062.890397347",
                "miles": "710887.7157915086"
            },
            "orbiting_body": "Earth"
        },
        {
            "close_approach_date": "2019-04-25",
            "close_approach_date_full": "2019-Apr-25 00:48",
            "epoch_date_close_approach": 1556153280000,
            "relative_velocity": {
                "kilometers_per_second": "27.8294763885",
                "kilometers_per_hour": "100186.1149987336",
                "miles_per_hour": "62251.7557335186"
            },
            "miss_distance": {
                "astronomical": "0.0056295331",
                "lunar": "2.1898883759",
                "kilometers": "842166.160854497",
                "miles": "523297.7867141786"
            },
            "orbiting_body": "Moon"
        }
    ],
    "orbital_data": {
        "orbit_id": "2",
        "orbit_determination_date": "2019-05-23 06:24:31",
        "first_observation_date": "2019-04-26",
        "last_observation_date": "2019-05-10",
        "data_arc_in_days": 14,
        "observations_used": 18,
        "orbit_uncertainty": "9",
        "minimum_orbit_intersection": ".00420266",
        "jupiter_tisserand_invariant": "2.871",
        "epoch_osculation": "2458611.5",
        "eccentricity": ".8310413434434615",
        "semi_major_axis": "2.466919541417913",
        "inclination": "5.979006518375275",
        "ascending_node_longitude": "216.8205685151339",
        "orbital_period": "1415.242638938358",
        "perihelion_distance": ".4168074115510426",
        "perihelion_argument": "250.8272421927947",
        "aphelion_distance": "4.517031671284783",
        "perihelion_time": "2458554.596300570170",
        "mean_anomaly": "14.47478420386333",
        "mean_motion": ".2543733421359134",
        "equinox": "J2000",
        "orbit_class": {
            "orbit_class_type": "APO",
            "orbit_class_description": "Near-Earth asteroid orbits which cross the Earth’s orbit similar to that of 1862 Apollo",
            "orbit_class_range": "a (semi-major axis) > 1.0 AU; q (perihelion) < 1.017 AU"
        }
    },
    "is_sentry_object": false
}